{
  "type": "FeatureCollection",
  "features": [
    {
      "type": "Feature",
      "properties": {
        "norad_id": 66932,
        "name": "STARLINK-36177",
        "group": "last-30-days",
        "lat": 49.25022819155896,
        "lon": 131.0688709037191,
        "alt_km": 331.5241019262039,
        "timestamp": "2025-12-20T11:30:27.107396+00:00",
        "meta_object_name": "STARLINK-36177",
        "meta_object_id": "2025-286H",
        "meta_epoch": "2025-12-20T04:00:00.999072",
        "meta_mean_motion": 15.7802682,
        "meta_eccentricity": 0.0001202,
        "meta_inclination": 53.1559,
        "meta_ra_of_asc_node": 13.1166,
        "meta_arg_of_pericenter": 76.0463,
        "meta_mean_anomaly": 55.2035,
        "meta_ephemeris_type": 0,
        "meta_classification_type": "U",
        "meta_norad_cat_id": 66932,
        "meta_element_set_no": 999,
        "meta_rev_at_epoch": 318,
        "meta_bstar": -0.0093338,
        "meta_mean_motion_dot": -0.01434503,
        "meta_mean_motion_ddot": 0,
        "tle_line1": "1 66932U 25286H   25354.16667823 -.01434503  00000+0 -93338-2 0  9996",
        "tle_line2": "2 66932  53.1559  13.1166 0001202  76.0463  55.2035 15.78026820  3186"
      },
      "geometry": {
        "type": "Point",
        "coordinates": [
          131.0688709037191,
          49.25022819155896
        ]
      }
    },
    {
      "type": "Feature",
      "properties": {
        "norad_id": 66933,
        "name": "STARLINK-36157",
        "group": "last-30-days",
        "lat": 48.39283108979794,
        "lon": 133.94891379579886,
        "alt_km": 331.89872700807155,
        "timestamp": "2025-12-20T11:30:27.107406+00:00",
        "meta_object_name": "STARLINK-36157",
        "meta_object_id": "2025-286J",
        "meta_epoch": "2025-12-20T04:00:00.999072",
        "meta_mean_motion": 15.77986202,
        "meta_eccentricity": 0.0001027,
        "meta_inclination": 53.156,
        "meta_ra_of_asc_node": 13.1123,
        "meta_arg_of_pericenter": 71.991,
        "meta_mean_anomaly": 61.3845,
        "meta_ephemeris_type": 0,
        "meta_classification_type": "U",
        "meta_norad_cat_id": 66933,
        "meta_element_set_no": 999,
        "meta_rev_at_epoch": 318,
        "meta_bstar": -0.0093447,
        "meta_mean_motion_dot": -0.01433549,
        "meta_mean_motion_ddot": 0,
        "tle_line1": "1 66933U 25286J   25354.16667823 -.01433549  00000+0 -93447-2 0  9997",
        "tle_line2": "2 66933  53.1560  13.1123 0001027  71.9910  61.3845 15.77986202  3183"
      },
      "geometry": {
        "type": "Point",
        "coordinates": [
          133.94891379579886,
          48.39283108979794
        ]
      }
    },
    {
      "type": "Feature",
      "properties": {
        "norad_id": 66934,
        "name": "STARLINK-36153",
        "group": "last-30-days",
        "lat": 47.46099369698074,
        "lon": 136.74263884026283,
        "alt_km": 332.01187402093456,
        "timestamp": "2025-12-20T11:30:27.107417+00:00",
        "meta_object_name": "STARLINK-36153",
        "meta_object_id": "2025-286K",
        "meta_epoch": "2025-12-20T04:00:00.999072",
        "meta_mean_motion": 15.77958663,
        "meta_eccentricity": 0.0001317,
        "meta_inclination": 53.156,
        "meta_ra_of_asc_node": 13.1077,
        "meta_arg_of_pericenter": 72.8512,
        "meta_mean_anomaly": 62.6526,
        "meta_ephemeris_type": 0,
        "meta_classification_type": "U",
        "meta_norad_cat_id": 66934,
        "meta_element_set_no": 999,
        "meta_rev_at_epoch": 318,
        "meta_bstar": -0.0095115,
        "meta_mean_motion_dot": -0.01454728,
        "meta_mean_motion_ddot": 0,
        "tle_line1": "1 66934U 25286K   25354.16667823 -.01454728  00000+0 -95115-2 0  9994",
        "tle_line2": "2 66934  53.1560  13.1077 0001317  72.8512  62.6526 15.77958663  3182"
      },
      "geometry": {
        "type": "Point",
        "coordinates": [
          136.74263884026283,
          47.46099369698074
        ]
      }
    },
    {
      "type": "Feature",
      "properties": {
        "norad_id": 66935,
        "name": "STARLINK-36127",
        "group": "last-30-days",
        "lat": 46.42575764512957,
        "lon": 139.53257642717213,
        "alt_km": 332.3909946366957,
        "timestamp": "2025-12-20T11:30:27.107429+00:00",
        "meta_object_name": "STARLINK-36127",
        "meta_object_id": "2025-286L",
        "meta_epoch": "2025-12-20T04:00:00.999072",
        "meta_mean_motion": 15.77892034,
        "meta_eccentricity": 0.0001141,
        "meta_inclination": 53.156,
        "meta_ra_of_asc_node": 13.1031,
        "meta_arg_of_pericenter": 85.2966,
        "meta_mean_anomaly": 52.4538,
        "meta_ephemeris_type": 0,
        "meta_classification_type": "U",
        "meta_norad_cat_id": 66935,
        "meta_element_set_no": 999,
        "meta_rev_at_epoch": 318,
        "meta_bstar": -0.0095643,
        "meta_mean_motion_dot": -0.01457849,
        "meta_mean_motion_ddot": 0,
        "tle_line1": "1 66935U 25286L   25354.16667823 -.01457849  00000+0 -95643-2 0  9998",
        "tle_line2": "2 66935  53.1560  13.1031 0001141  85.2966  52.4538 15.77892034  3188"
      },
      "geometry": {
        "type": "Point",
        "coordinates": [
          139.53257642717213,
          46.42575764512957
        ]
      }
    },
    {
      "type": "Feature",
      "properties": {
        "norad_id": 66936,
        "name": "STARLINK-36160",
        "group": "last-30-days",
        "lat": 45.39499253093978,
        "lon": 142.0530201406923,
        "alt_km": 332.75707416193836,
        "timestamp": "2025-12-20T11:30:27.107441+00:00",
        "meta_object_name": "STARLINK-36160",
        "meta_object_id": "2025-286M",
        "meta_epoch": "2025-12-20T04:00:00.999072",
        "meta_mean_motion": 15.77859656,
        "meta_eccentricity": 0.0001106,
        "meta_inclination": 53.1562,
        "meta_ra_of_asc_node": 13.0992,
        "meta_arg_of_pericenter": 71.5523,
        "meta_mean_anomaly": 68.2646,
        "meta_ephemeris_type": 0,
        "meta_classification_type": "U",
        "meta_norad_cat_id": 66936,
        "meta_element_set_no": 999,
        "meta_rev_at_epoch": 318,
        "meta_bstar": -0.0095624,
        "meta_mean_motion_dot": -0.01455693,
        "meta_mean_motion_ddot": 0,
        "tle_line1": "1 66936U 25286M   25354.16667823 -.01455693  00000+0 -95624-2 0  9993",
        "tle_line2": "2 66936  53.1562  13.0992 0001106  71.5523  68.2646 15.77859656  3182"
      },
      "geometry": {
        "type": "Point",
        "coordinates": [
          142.0530201406923,
          45.39499253093978
        ]
      }
    },
    {
      "type": "Feature",
      "properties": {
        "norad_id": 66937,
        "name": "STARLINK-36165",
        "group": "last-30-days",
        "lat": 44.30292847214616,
        "lon": 144.4946263107255,
        "alt_km": 333.01225327789416,
        "timestamp": "2025-12-20T11:30:27.107452+00:00",
        "meta_object_name": "STARLINK-36165",
        "meta_object_id": "2025-286N",
        "meta_epoch": "2025-12-20T04:00:00.999072",
        "meta_mean_motion": 15.77834105,
        "meta_eccentricity": 0.0001188,
        "meta_inclination": 53.1557,
        "meta_ra_of_asc_node": 13.0942,
        "meta_arg_of_pericenter": 70.1002,
        "meta_mean_anomaly": 71.7961,
        "meta_ephemeris_type": 0,
        "meta_classification_type": "U",
        "meta_norad_cat_id": 66937,
        "meta_element_set_no": 999,
        "meta_rev_at_epoch": 318,
        "meta_bstar": -0.0096652,
        "meta_mean_motion_dot": -0.01468047,
        "meta_mean_motion_ddot": 0,
        "tle_line1": "1 66937U 25286N   25354.16667823 -.01468047  00000+0 -96652-2 0  9993",
        "tle_line2": "2 66937  53.1557  13.0942 0001188  70.1002  71.7961 15.77834105  3180"
      },
      "geometry": {
        "type": "Point",
        "coordinates": [
          144.4946263107255,
          44.30292847214616
        ]
      }
    },
    {
      "type": "Feature",
      "properties": {
        "norad_id": 66938,
        "name": "STARLINK-36155",
        "group": "last-30-days",
        "lat": 43.16235347412521,
        "lon": 146.84275764545168,
        "alt_km": 333.32803508827055,
        "timestamp": "2025-12-20T11:30:27.107464+00:00",
        "meta_object_name": "STARLINK-36155",
        "meta_object_id": "2025-286P",
        "meta_epoch": "2025-12-20T04:00:00.999072",
        "meta_mean_motion": 15.77800343,
        "meta_eccentricity": 0.0001023,
        "meta_inclination": 53.1557,
        "meta_ra_of_asc_node": 13.0895,
        "meta_arg_of_pericenter": 77.4933,
        "meta_mean_anomaly": 66.4884,
        "meta_ephemeris_type": 0,
        "meta_classification_type": "U",
        "meta_norad_cat_id": 66938,
        "meta_element_set_no": 999,
        "meta_rev_at_epoch": 318,
        "meta_bstar": -0.0097,
        "meta_mean_motion_dot": -0.01470618,
        "meta_mean_motion_ddot": 0,
        "tle_line1": "1 66938U 25286P   25354.16667823 -.01470618  00000+0 -97000-2 0  9999",
        "tle_line2": "2 66938  53.1557  13.0895 0001023  77.4933  66.4884 15.77800343  3181"
      },
      "geometry": {
        "type": "Point",
        "coordinates": [
          146.84275764545168,
          43.16235347412521
        ]
      }
    }
  ]
}